[{"line1":"1 22627U 93024B   22221.28381209  .00000191  00000-0  23011-4 0  9991","line2":"2 22627  82.5245 154.9467 0022212 308.8971  51.0259 14.78341095579744"},{"line1":"1 22645U 93016AF  22221.15213135  .00000727  00000-0  62378-3 0  9993","line2":"2 22645  70.9861 282.4025 0173947 214.9660 174.4553 13.83387755477371"},{"line1":"1 22646U 93030A   22221.24913336 -.00000001  00000-0 -63813-4 0  9993","line2":"2 22646  82.5861 130.7209 0010921 217.3985 312.0238 12.64013759349195"},{"line1":"1 22647U 93030B   22221.20885891  .00000000  00000-0 -60553-4 0  9990","line2":"2 22647  82.5872 136.5238 0009008 229.7272 130.3033 12.63579524348700"},{"line1":"1 22648U 93030C   22221.52200860  .00000002  00000-0 -49166-4 0  9992","line2":"2 22648  82.5812 135.6241 0007156 253.0335 280.5970 12.63215377348566"},{"line1":"1 22649U 93030D   22221.19079335  .00000012  00000-0  92381-5 0  9995","line2":"2 22649  82.5796 131.6858 0008269 249.1466 110.8740 12.63466919348600"},{"line1":"1 22650U 93030E   22221.28630354  .00000005  00000-0 -30731-4 0  9994","line2":"2 22650  82.5876 142.3088 0006435 254.5005 264.0330 12.63131208348277"},{"line1":"1 22651U 93030F   22221.28534663  .00000007  00000-0 -17033-4 0  9993","line2":"2 22651  82.5854 140.2713 0008674 240.9105 277.3971 12.63078451348271"},{"line1":"1 22652U 93030G   22221.22620477  .00000000  00000-0 -57806-4 0  9992","line2":"2 22652  82.5894 142.9452 0006629 255.4037 259.4597 12.63152828348274"},{"line1":"1 22653U 93031A   22221.29632866 -.00000246  00000-0  00000-0 0  9998","line2":"2 22653  10.9273  34.8316 0007669  54.1864 301.8979  0.98842769 37171"},{"line1":"1 22654U 93031B   22220.81177128 -.00000127  00000-0  00000+0 0  9998","line2":"2 22654   2.8963  88.1478 2852944 239.1933 310.9213  1.42204197147370"},{"line1":"1 22655U 93031C   22221.31911031  .00003584  00000-0  15695-2 0  9992","line2":"2 22655   5.2243  11.7131 6815716 178.8198 184.8814  2.86266879274122"},{"line1":"1 22657U 93032A   22221.45205984 -.00000084  00000-0  00000-0 0  9998","line2":"2 22657  54.7556 330.8217 0041171  64.6981 295.2311  1.87695602207475"},{"line1":"1 22665U 92093JA  22221.44947766  .00000144  00000-0  11410-3 0  9999","line2":"2 22665  71.0795  16.5813 0068269  80.9569 310.1974 14.05545705503889"},{"line1":"1 22668U 88077D   22220.17964908  .00000154  00000-0  50960-3 0  9999","line2":"2 22668  27.1645 290.7047 7348076 336.5449   2.6871  2.13063052 24865"},{"line1":"1 22669U 88077E   22219.18643284 -.00000015  00000-0 -87674-5 0  9992","line2":"2 22669  27.2562 309.7145 7358553 313.0893   5.5377  2.10265238 24319"},{"line1":"1 22670U 92072C   22221.28188254  .00003937  00000-0  10748-2 0  9998","line2":"2 22670   6.8002 344.4849 6185874  92.3960 334.9967  3.75196961706943"},{"line1":"1 22671U 93035A   22221.84348089  .00000329  00000-0  40759-3 0  9993","line2":"2 22671  63.0903 205.9193 4859692   7.8552 357.6076  5.62682199355252"},{"line1":"1 22675U 93036A   22221.71741577  .00000035  00000-0  22170-4 0  9995","line2":"2 22675  74.0397  25.6943 0024307  45.7803 314.5338 14.32624895523175"},{"line1":"1 22676U 93036B   22221.25953240  .00000060  00000-0  30810-4 0  9995","line2":"2 22676  74.0444 344.8458 0019766 272.2773  87.6116 14.34127424524386"},{"line1":"1 22687U 93038A   22221.25379157  .00000046  00000-0  19768-3 0  9990","line2":"2 22687  82.5804  47.5177 0007054 297.9379 235.5390 12.63274056342740"},{"line1":"1 22688U 93038B   22221.29431093  .00000040  00000-0  16928-3 0  9992","line2":"2 22688  82.5839  73.4401 0011062 319.4373  40.5892 12.61542119340975"},{"line1":"1 22689U 93038C   22221.77027789  .00000037  00000-0  14372-3 0  9996","line2":"2 22689  82.5817  26.0598 0010933 274.7095  97.4723 12.64857372344851"},{"line1":"1 22690U 93038D   22221.29326318  .00000041  00000-0  16882-3 0  9998","line2":"2 22690  82.5823  48.8997 0005018 308.0020 225.1257 12.63275086343454"},{"line1":"1 22691U 93038E   22221.46890376  .00000018  00000-0  41647-4 0  9990","line2":"2 22691  82.5749  32.9577 0006273 312.3954  75.7464 12.63889927343980"},{"line1":"1 22692U 93038F   22221.27600224  .00000030  00000-0  10926-3 0  9990","line2":"2 22692  82.5759  56.8539 0007463 308.3466  51.6954 12.62209902342164"},{"line1":"1 22693U 93038G   22221.25642093 -.00000008  00000-0 -11065-3 0  9991","line2":"2 22693  82.5882 154.8473 0044990 229.7700 285.3113 12.54816098334436"},{"line1":"1 22694U 93039A   22221.39975020 -.00000093  00000-0  00000-0 0  9994","line2":"2 22694  14.6269   5.9197 0005330 260.1029 268.1843  1.00268858104886"},{"line1":"1 22698U 93041A   22221.25437290  .00000086  00000-0  30139-4 0  9999","line2":"2 22698  89.5409 139.5787 0091143 110.4804 250.6201 14.23506686511857"},{"line1":"1 22699U 93041B   22221.16624949  .00000196  00000-0  74308-4 0  9997","line2":"2 22699  89.5369 137.5013 0089430  69.7348 291.3431 14.25222533512629"},{"line1":"1 22700U 93042A   22220.03683323  .00000100  00000-0  00000-0 0  9996","line2":"2 22700  54.7876 217.9939 0010242   0.3161 180.9136  1.89432314210433"},{"line1":"1 22706U 93041C   22221.31876340  .00000640  00000-0  18951-3 0  9992","line2":"2 22706  89.3198 173.7944 0030987 113.7952  39.5577 14.42090663526663"},{"line1":"1 22707U 93041D   22221.07778123  .00000349  00000-0  13283-3 0  9995","line2":"2 22707  90.1542 275.6300 0142729 236.7421 122.0029 14.24075019508893"},{"line1":"1 22719U 93046A   22221.55004778  .00000017  00000-0  00000-0 0  9996","line2":"2 22719  12.6855  23.8150 0007473  69.3382 313.3344  0.99047648 11258"},{"line1":"1 22723U 93048A   22221.57362584  .00000042  00000-0  00000-0 0  9995","line2":"2 22723  12.5801  22.8192 0005630  39.2994 301.7886  0.99726035105795"},{"line1":"1 22724U 93048B   22220.73669176 -.00000189  00000-0  00000-0 0  9993","line2":"2 22724  14.0000  13.0324 0015572 165.8331  29.0422  0.99986040106498"},{"line1":"1 22725U 93048C   22221.47612674  .00001192  00000-0  83285-3 0  9990","line2":"2 22725   7.2412 356.1802 6948256 247.8300  28.8873  2.66018994274975"},{"line1":"1 22738U 93046C   22220.85028436 -.00000259  00000-0  00000-0 0  9995","line2":"2 22738  13.7326 348.0304 0089212 107.6426 253.3873  1.02140078 11945"},{"line1":"1 22739U 93050A   22221.48975630  .00000045  00000-0  46428-4 0  9998","line2":"2 22739  98.5081 198.6549 0009240 184.5756 175.5334 14.12853554494541"},{"line1":"1 22744U 93051D   22220.65085431  .00000560  00000-0  00000-0 0  9998","line2":"2 22744  67.7871  47.3943 6394626 117.4723 320.2124  2.05607167216274"},{"line1":"1 22779U 93054A   22219.45118948  .00000049  00000-0  00000-0 0  9997","line2":"2 22779  53.9606 268.8866 0051205 233.3562 128.7009  1.89129392209360"},{"line1":"1 22782U 93055A   22221.34369372 -.00000014  00000-0 -26202-4 0  9992","line2":"2 22782  82.5514 332.2597 0022009 196.0383 181.5663 13.83855697461323"},{"line1":"1 22783U 93055B   22221.28546820  .00000031  00000-0  14347-4 0  9995","line2":"2 22783  82.5542 334.9654 0022500 195.4703 164.5772 13.83737567460992"},{"line1":"1 22784U 93055C   22221.30505042  .00000015  00000-0 -19238-6 0  9999","line2":"2 22784  82.5533 336.4181 0021424 207.3120 181.8887 13.83453139461052"},{"line1":"1 22787U 93056A   22221.10406991  .00000119  00000-0  00000-0 0  9999","line2":"2 22787  11.4779  10.8601 0002692 159.6738 213.2482  1.00276303104437"},{"line1":"1 22796U 93058B   22221.49330757 -.00000123  00000-0  00000-0 0  9995","line2":"2 22796  14.6034   6.3804 0046078  51.7408 332.5647  1.00273191112791"},{"line1":"1 22797U 93058D   22221.10423840  .00000204  00000-0  22726-3 0  9991","line2":"2 22797  14.6869 219.7250 7380129 199.8319  99.6863  2.11125782218471"},{"line1":"1 22801U 93050C   22098.02088284  .27576868  35026-5  58502-2 0  9995","line2":"2 22801  98.9386 181.4211 0016659 296.9315  63.0272 16.30405714517934"},{"line1":"1 22802U 93059A   22221.42129495  .00000339  00000-0  20585-3 0  9993","line2":"2 22802  70.9284 332.2274 0024747 286.9115  72.9294 14.13249607490402"},{"line1":"1 22803U 93059B   22221.08087506 -.00000200  00000-0 -75886-4 0  9996","line2":"2 22803  70.9880 249.8942 0015723  37.6764 322.5458 14.16870309494159"},{"line1":"1 22804U 93059C   22221.54840003 -.00000041  00000-0  28479-5 0  9996","line2":"2 22804  70.9741  60.4740 0211177 325.5934  62.3476 13.71442030445744"},{"line1":"1 22805U 93059D   22221.41454030  .00000012  00000-0  52670-4 0  9990","line2":"2 22805  70.9722  98.5153 0212781  24.0132 147.6727 13.70174477444489"},{"line1":"1 22806U 93059E   22221.26941490  .00000054  00000-0  89842-4 0  9992","line2":"2 22806  71.0184  43.1662 0202058 206.2093 209.0795 13.73343522447787"},{"line1":"1 22807U 93059F   22221.06531317  .00000003  00000-0  43962-4 0  9991","line2":"2 22807  71.0170  87.0855 0208780 264.9820 167.4649 13.72042794446365"},{"line1":"1 22812U 92093JB  22221.41142212  .00000897  00000-0  58800-3 0  9992","line2":"2 22812  70.6904  12.9495 0137272 272.5423  85.9981 14.00411327485358"},{"line1":"1 22816U 92093JC  22221.12130910  .00002963  00000-0  12562-2 0  9996","line2":"2 22816  71.4598 260.3414 0115969 173.7251 218.6666 14.22561690506284"},{"line1":"1 22818U 88077F   22181.86709743 -.00000126  00000-0  61405-3 0  9998","line2":"2 22818  27.1843  61.1469 7052202 246.3636  28.2120  2.50434899 27337"},{"line1":"1 22823U 93061A   22221.34030230  .00000012  00000-0  27860-4 0  9990","line2":"2 22823  99.0495 248.1730 0016054 309.1525  50.8222 14.19364981494812"},{"line1":"1 22824U 93061B   22221.55293843 -.00000029  00000-0  71649-5 0  9999","line2":"2 22824  98.9628 243.8090 0006519  11.5063 146.6840 14.27392186503959"},{"line1":"1 22825U 93061C   22221.33496589  .00000050  00000-0  37193-4 0  9996","line2":"2 22825  98.8843 253.4827 0007370 255.7477 104.2886 14.30184570505716"},{"line1":"1 22826U 93061D   22221.34537602  .00000064  00000-0  42408-4 0  9990","line2":"2 22826  98.8787 253.3693 0008006 240.5924 119.4459 14.30531964505975"}]